[{"OBJECT_NAME":"LILIUM-1","OBJECT_ID":"2023-185F","EPOCH":"2026-03-09T22:28:56.680896","MEAN_MOTION":15.66968582,"ECCENTRICITY":0.00057383,"INCLINATION":97.3316,"RA_OF_ASC_NODE":147.7332,"ARG_OF_PERICENTER":186.5847,"MEAN_ANOMALY":173.5339,"EPHEMERIS_TYPE":0,"CLASSIFICATION_TYPE":"U","NORAD_CAT_ID":58467,"ELEMENT_SET_NO":999,"REV_AT_EPOCH":12691,"BSTAR":0.0013028575,"MEAN_MOTION_DOT":0.00140249,"MEAN_MOTION_DDOT":0},{"OBJECT_NAME":"STARLINK-11341 [DTC]","OBJECT_ID":"2024-195K","EPOCH":"2026-03-09T07:03:32.831136","MEAN_MOTION":15.69703073,"ECCENTRICITY":0.00017492,"INCLINATION":53.1583,"RA_OF_ASC_NODE":28.0483,"ARG_OF_PERICENTER":127.4696,"MEAN_ANOMALY":232.6482,"EPHEMERIS_TYPE":0,"CLASSIFICATION_TYPE":"U","NORAD_CAT_ID":61696,"ELEMENT_SET_NO":999,"REV_AT_EPOCH":7897,"BSTAR":-7.294224e-6,"MEAN_MOTION_DOT":-1.473e-5,"MEAN_MOTION_DDOT":0}]
